COSMOS 1975             
1 19573U 88093A   26129.80554390  .00005070  00000+0  17954-3 0  9997
2 19573  82.5201  56.2873 0010016 323.9696  36.0867 15.28845504 28745
SL-14 R/B               
1 19574U 88093B   26129.87447897  .00000272  00000+0  28396-4 0  9990
2 19574  82.5313 344.6197 0020285 191.5237 179.4515 14.85712728 10108
SL-16 R/B               
1 19650U 88102B   26129.79202353  .00000026  00000+0  37069-4 0  9997
2 19650  71.0018  22.9293 0016495 276.6503  83.2743 14.16163056935547
INTERCOSMOS 24          
1 20261U 89080A   26129.81024391  .00000275  00000+0  73237-4 0  9993
2 20261  82.6063  64.6064 1187778 150.9093 216.3872 12.59611431674492
SL-14 R/B               
1 20262U 89080C   26129.76388728  .00000344  00000+0  95636-4 0  9999
2 20262  82.5892 133.9874 1230755  45.2348 324.2462 12.50538759667784
DELTA 1 R/B             
1 20323U 89089B   26129.80105860  .00000186  00000+0  54920-4 0  9990
2 20323  97.0654 327.4973 0067434 289.9423  69.4520 14.50705329904598
ARIANE 40 R/B           
1 20443U 90005H   26129.75637240  .00000157  00000+0  63406-4 0  9996
2 20443  98.2981 188.5627 0010534  28.3170 331.8590 14.39906899901594
DELTA 2 R/B(1)          
1 20453U 90008B   26129.42931580  .00053017  00000+0  47954-3 0  9990
2 20453  35.6005 133.8428 0070520 110.3411 250.4921 15.63703977935625
COSMOS 2058             
1 20465U 90010A   26129.81481987  .00002811  00000+0  16283-3 0  9997
2 20465  82.4684 347.1963 0011220 118.2798 241.9566 15.11786227951475
SL-14 R/B               
1 20466U 90010B   26129.72501104  .00000263  00000+0  28819-4 0  9990
2 20466  82.5042 210.0612 0021362  98.3861 261.9777 14.83622944937531
SL-14 R/B               
1 20511U 90018B   26129.80137020  .00000218  00000+0  24346-4 0  9991
2 20511  82.5212 165.9874 0014789 248.7661 111.1974 14.82192655931633
HST                     
1 20580U 90037B   26129.80266005  .00005313  00000+0  16829-3 0  9991
2 20580  28.4760 342.8246 0002190  75.4822 284.6017 15.30338732782687
SL-16 R/B               
1 20625U 90046B   26129.63341125  .00000102  00000+0  77090-4 0  9998
2 20625  70.9983 169.9191 0015548 219.1498 140.8501 14.15022961857017
