[
    {
        "OBJECT_NAME": "COSMOS 1975",
        "OBJECT_ID": "1988-093A",
        "EPOCH": "2026-05-09T19:19:58.992960",
        "MEAN_MOTION": 15.28845504,
        "ECCENTRICITY": 0.0010016,
        "INCLINATION": 82.5201,
        "RA_OF_ASC_NODE": 56.2873,
        "ARG_OF_PERICENTER": 323.9696,
        "MEAN_ANOMALY": 36.0867,
        "EPHEMERIS_TYPE": 0,
        "CLASSIFICATION_TYPE": "U",
        "NORAD_CAT_ID": 19573,
        "ELEMENT_SET_NO": 999,
        "REV_AT_EPOCH": 2874,
        "BSTAR": 0.00017954,
        "MEAN_MOTION_DOT": 5.07e-05,
        "MEAN_MOTION_DDOT": 0
    },
    {
        "OBJECT_NAME": "SL-14 R/B",
        "OBJECT_ID": "1988-093B",
        "EPOCH": "2026-05-09T20:59:14.983008",
        "MEAN_MOTION": 14.85712728,
        "ECCENTRICITY": 0.0020285,
        "INCLINATION": 82.5313,
        "RA_OF_ASC_NODE": 344.6197,
        "ARG_OF_PERICENTER": 191.5237,
        "MEAN_ANOMALY": 179.4515,
        "EPHEMERIS_TYPE": 0,
        "CLASSIFICATION_TYPE": "U",
        "NORAD_CAT_ID": 19574,
        "ELEMENT_SET_NO": 999,
        "REV_AT_EPOCH": 1010,
        "BSTAR": 2.8396e-05,
        "MEAN_MOTION_DOT": 2.72e-06,
        "MEAN_MOTION_DDOT": 0
    },
    {
        "OBJECT_NAME": "SL-16 R/B",
        "OBJECT_ID": "1988-102B",
        "EPOCH": "2026-05-09T19:00:30.832992",
        "MEAN_MOTION": 14.16163056,
        "ECCENTRICITY": 0.0016495,
        "INCLINATION": 71.0018,
        "RA_OF_ASC_NODE": 22.9293,
        "ARG_OF_PERICENTER": 276.6503,
        "MEAN_ANOMALY": 83.2743,
        "EPHEMERIS_TYPE": 0,
        "CLASSIFICATION_TYPE": "U",
        "NORAD_CAT_ID": 19650,
        "ELEMENT_SET_NO": 999,
        "REV_AT_EPOCH": 93554,
        "BSTAR": 3.7069e-05,
        "MEAN_MOTION_DOT": 2.6e-07,
        "MEAN_MOTION_DDOT": 0
    },
    {
        "OBJECT_NAME": "INTERCOSMOS 24",
        "OBJECT_ID": "1989-080A",
        "EPOCH": "2026-05-09T19:26:45.073824",
        "MEAN_MOTION": 12.59611431,
        "ECCENTRICITY": 0.1187778,
        "INCLINATION": 82.6063,
        "RA_OF_ASC_NODE": 64.6064,
        "ARG_OF_PERICENTER": 150.9093,
        "MEAN_ANOMALY": 216.3872,
        "EPHEMERIS_TYPE": 0,
        "CLASSIFICATION_TYPE": "U",
        "NORAD_CAT_ID": 20261,
        "ELEMENT_SET_NO": 999,
        "REV_AT_EPOCH": 67449,
        "BSTAR": 7.3237e-05,
        "MEAN_MOTION_DOT": 2.75e-06,
        "MEAN_MOTION_DDOT": 0
    },
    {
        "OBJECT_NAME": "SL-14 R/B",
        "OBJECT_ID": "1989-080C",
        "EPOCH": "2026-05-09T18:19:59.860992",
        "MEAN_MOTION": 12.50538759,
        "ECCENTRICITY": 0.1230755,
        "INCLINATION": 82.5892,
        "RA_OF_ASC_NODE": 133.9874,
        "ARG_OF_PERICENTER": 45.2348,
        "MEAN_ANOMALY": 324.2462,
        "EPHEMERIS_TYPE": 0,
        "CLASSIFICATION_TYPE": "U",
        "NORAD_CAT_ID": 20262,
        "ELEMENT_SET_NO": 999,
        "REV_AT_EPOCH": 66778,
        "BSTAR": 9.5636e-05,
        "MEAN_MOTION_DOT": 3.44e-06,
        "MEAN_MOTION_DDOT": 0
    },
    {
        "OBJECT_NAME": "DELTA 1 R/B",
        "OBJECT_ID": "1989-089B",
        "EPOCH": "2026-05-09T19:13:31.463040",
        "MEAN_MOTION": 14.50705329,
        "ECCENTRICITY": 0.0067434,
        "INCLINATION": 97.0654,
        "RA_OF_ASC_NODE": 327.4973,
        "ARG_OF_PERICENTER": 289.9423,
        "MEAN_ANOMALY": 69.452,
        "EPHEMERIS_TYPE": 0,
        "CLASSIFICATION_TYPE": "U",
        "NORAD_CAT_ID": 20323,
        "ELEMENT_SET_NO": 999,
        "REV_AT_EPOCH": 90459,
        "BSTAR": 5.492e-05,
        "MEAN_MOTION_DOT": 1.86e-06,
        "MEAN_MOTION_DDOT": 0
    },
    {
        "OBJECT_NAME": "ARIANE 40 R/B",
        "OBJECT_ID": "1990-005H",
        "EPOCH": "2026-05-09T18:09:10.575360",
        "MEAN_MOTION": 14.39906899,
        "ECCENTRICITY": 0.0010534,
        "INCLINATION": 98.2981,
        "RA_OF_ASC_NODE": 188.5627,
        "ARG_OF_PERICENTER": 28.317,
        "MEAN_ANOMALY": 331.859,
        "EPHEMERIS_TYPE": 0,
        "CLASSIFICATION_TYPE": "U",
        "NORAD_CAT_ID": 20443,
        "ELEMENT_SET_NO": 999,
        "REV_AT_EPOCH": 90159,
        "BSTAR": 6.3406e-05,
        "MEAN_MOTION_DOT": 1.57e-06,
        "MEAN_MOTION_DDOT": 0
    },
    {
        "OBJECT_NAME": "DELTA 2 R/B(1)",
        "OBJECT_ID": "1990-008B",
        "EPOCH": "2026-05-09T10:18:12.885120",
        "MEAN_MOTION": 15.63703977,
        "ECCENTRICITY": 0.007052,
        "INCLINATION": 35.6005,
        "RA_OF_ASC_NODE": 133.8428,
        "ARG_OF_PERICENTER": 110.3411,
        "MEAN_ANOMALY": 250.4921,
        "EPHEMERIS_TYPE": 0,
        "CLASSIFICATION_TYPE": "U",
        "NORAD_CAT_ID": 20453,
        "ELEMENT_SET_NO": 999,
        "REV_AT_EPOCH": 93562,
        "BSTAR": 0.00047954,
        "MEAN_MOTION_DOT": 0.00053017,
        "MEAN_MOTION_DDOT": 0
    },
    {
        "OBJECT_NAME": "COSMOS 2058",
        "OBJECT_ID": "1990-010A",
        "EPOCH": "2026-05-09T19:33:20.436768",
        "MEAN_MOTION": 15.11786227,
        "ECCENTRICITY": 0.001122,
        "INCLINATION": 82.4684,
        "RA_OF_ASC_NODE": 347.1963,
        "ARG_OF_PERICENTER": 118.2798,
        "MEAN_ANOMALY": 241.9566,
        "EPHEMERIS_TYPE": 0,
        "CLASSIFICATION_TYPE": "U",
        "NORAD_CAT_ID": 20465,
        "ELEMENT_SET_NO": 999,
        "REV_AT_EPOCH": 95147,
        "BSTAR": 0.00016283,
        "MEAN_MOTION_DOT": 2.811e-05,
        "MEAN_MOTION_DDOT": 0
    },
    {
        "OBJECT_NAME": "SL-14 R/B",
        "OBJECT_ID": "1990-010B",
        "EPOCH": "2026-05-09T17:24:00.953856",
        "MEAN_MOTION": 14.83622944,
        "ECCENTRICITY": 0.0021362,
        "INCLINATION": 82.5042,
        "RA_OF_ASC_NODE": 210.0612,
        "ARG_OF_PERICENTER": 98.3861,
        "MEAN_ANOMALY": 261.9777,
        "EPHEMERIS_TYPE": 0,
        "CLASSIFICATION_TYPE": "U",
        "NORAD_CAT_ID": 20466,
        "ELEMENT_SET_NO": 999,
        "REV_AT_EPOCH": 93753,
        "BSTAR": 2.8819e-05,
        "MEAN_MOTION_DOT": 2.63e-06,
        "MEAN_MOTION_DDOT": 0
    },
    {
        "OBJECT_NAME": "SL-14 R/B",
        "OBJECT_ID": "1990-018B",
        "EPOCH": "2026-05-09T19:13:58.385280",
        "MEAN_MOTION": 14.82192655,
        "ECCENTRICITY": 0.0014789,
        "INCLINATION": 82.5212,
        "RA_OF_ASC_NODE": 165.9874,
        "ARG_OF_PERICENTER": 248.7661,
        "MEAN_ANOMALY": 111.1974,
        "EPHEMERIS_TYPE": 0,
        "CLASSIFICATION_TYPE": "U",
        "NORAD_CAT_ID": 20511,
        "ELEMENT_SET_NO": 999,
        "REV_AT_EPOCH": 93163,
        "BSTAR": 2.4346e-05,
        "MEAN_MOTION_DOT": 2.18e-06,
        "MEAN_MOTION_DDOT": 0
    },
    {
        "OBJECT_NAME": "HST",
        "OBJECT_ID": "1990-037B",
        "EPOCH": "2026-05-09T19:15:49.828320",
        "MEAN_MOTION": 15.30338732,
        "ECCENTRICITY": 0.000219,
        "INCLINATION": 28.476,
        "RA_OF_ASC_NODE": 342.8246,
        "ARG_OF_PERICENTER": 75.4822,
        "MEAN_ANOMALY": 284.6017,
        "EPHEMERIS_TYPE": 0,
        "CLASSIFICATION_TYPE": "U",
        "NORAD_CAT_ID": 20580,
        "ELEMENT_SET_NO": 999,
        "REV_AT_EPOCH": 78268,
        "BSTAR": 0.00016829,
        "MEAN_MOTION_DOT": 5.313e-05,
        "MEAN_MOTION_DDOT": 0
    },
    {
        "OBJECT_NAME": "SL-16 R/B",
        "OBJECT_ID": "1990-046B",
        "EPOCH": "2026-05-09T15:12:06.732000",
        "MEAN_MOTION": 14.15022961,
        "ECCENTRICITY": 0.0015548,
        "INCLINATION": 70.9983,
        "RA_OF_ASC_NODE": 169.9191,
        "ARG_OF_PERICENTER": 219.1498,
        "MEAN_ANOMALY": 140.8501,
        "EPHEMERIS_TYPE": 0,
        "CLASSIFICATION_TYPE": "U",
        "NORAD_CAT_ID": 20625,
        "ELEMENT_SET_NO": 999,
        "REV_AT_EPOCH": 85701,
        "BSTAR": 7.709e-05,
        "MEAN_MOTION_DOT": 1.02e-06,
        "MEAN_MOTION_DDOT": 0
    }
]